MEAN_MOTION;ECCENTRICITY;INCLINATION;RA_OF_ASC_NODE;ARG_OF_PERICENTER;MEAN_ANOMALY;BSTAR;MEAN_MOTION_DOT;MEAN_MOTION_DDOT;TYPE
14.34218789;0.0002364;86.401;21.1074;121.9876;238.1549;1.1347E-5;5.2E-7;0;Iridium
14.34218838;0.0002399;86.401;20.9034;121.7037;238.4393;1.1416E-5;5.2E-7;0;Iridium
14.34218838;0.0002399;86.401;20.9034;121.7037;238.4393;1.1416E-5;5.2E-7;0;Iridium
14.34218838;0.0002399;86.401;20.9034;121.7037;238.4393;1.1416E-5;5.2E-7;0;Iridium
14.34218881;0.000243;86.4011;20.6995;121.1581;238.9853;1.107E-5;5.1E-7;0;Iridium
14.34218935;0.0002456;86.4012;20.4956;120.7134;239.4304;1.1328E-5;5.2E-7;0;Iridium
14.34218972;0.0002493;86.4012;20.2625;120.1985;239.9458;1.0388E-5;4.9E-7;0;Iridium
14.34219026;0.0002526;86.4013;20.0877;119.9941;240.1505;1.118E-5;5.1E-7;0;Iridium
14.34219048;0.0002576;86.4013;19.8838;119.843;240.3022;1.0001E-5;4.8E-7;0;Iridium
14.3421909;0.0002598;86.4014;19.709;119.3289;240.8167;1.1061E-5;5.1E-7;0;Iridium
14.3421909;0.0002598;86.4014;19.709;119.3289;240.8167;1.1061E-5;5.1E-7;0;Iridium
14.34219189;0.0002688;86.4015;19.0681;117.6568;242.49;1.0993E-5;5.1E-7;0;Iridium
14.34219181;0.0002697;86.4016;19.0099;117.5342;242.6128;1.0457E-5;4.9E-7;0;Iridium
14.34219345;0.0002761;86.4017;18.8643;117.8593;242.2882;1.6498E-5;6.6E-7;0;Iridium
14.34219227;0.0002747;86.4017;18.6021;116.3269;243.8209;1.0901E-5;5.0E-7;0;Iridium
14.34219344;0.0002792;86.4017;18.4273;116.1307;244.0176;1.5604E-5;6.3E-7;0;Iridium
14.34219344;0.0002792;86.4017;18.4273;116.1307;244.0176;1.5604E-5;6.3E-7;0;Iridium
14.34219369;0.0002848;86.4018;18.1944;115.6502;244.4989;1.518E-5;6.2E-7;0;Iridium
14.34215991;0.0002885;86.4018;17.7572;113.1815;246.9685;1.4325E-5;6.0E-7;0;Iridium
14.34215971;0.0002918;86.4018;17.4951;112.4096;247.7409;1.5274E-5;6.3E-7;0;Iridium
14.34215967;0.0002929;86.4019;17.3786;112.2105;247.9402;7.2867E-6;4.0E-7;0;Iridium
14.34216024;0.0002969;86.4019;17.0874;111.3034;248.8479;1.262E-5;5.5E-7;0;Iridium
14.34216033;0.0002985;86.402;16.9417;110.9806;249.1709;1.0069E-5;4.8E-7;0;Iridium
14.34216119;0.0003017;86.402;16.6796;110.2533;249.8988;1.4852E-5;6.1E-7;0;Iridium
14.34216155;0.0003035;86.402;16.5048;109.8228;250.3295;1.4261E-5;6.0E-7;0;Iridium
14.34216277;0.0003067;86.402;16.2427;109.1864;250.9664;1.8913E-5;7.3E-7;0;Iridium
14.34216329;0.0003081;86.402;16.0971;108.865;251.288;1.9282E-5;7.4E-7;0;Iridium
14.34216422;0.0003113;86.402;15.835;108.1864;251.9671;1.9898E-5;7.6E-7;0;Iridium
14.34216421;0.0003117;86.402;15.8059;108.1006;252.0529;1.9157E-5;7.3E-7;0;Iridium
14.34216493;0.0003134;86.4021;15.6602;107.798;252.3558;2.1987E-5;8.1E-7;0;Iridium
14.34216505;0.0003163;86.4021;15.4272;107.0607;253.0935;1.7992E-5;7.0E-7;0;Iridium
14.34216518;0.0003165;86.4021;15.3981;106.9376;253.2167;1.8244E-5;7.1E-7;0;Iridium
14.3421656;0.0003182;86.4021;15.2525;106.5734;253.5811;1.8145E-5;7.1E-7;0;Iridium
14.34216585;0.000319;86.4021;15.136;106.2541;253.9006;1.7353E-5;6.8E-7;0;Iridium
14.34216577;0.0003211;86.4021;14.8739;105.4293;254.7258;1.1462E-5;5.2E-7;0;Iridium
14.3421662;0.0003239;86.4022;14.5827;104.6409;255.5146;1.1072E-5;5.1E-7;0;Iridium
14.3421662;0.0003239;86.4022;14.5827;104.6409;255.5146;1.1072E-5;5.1E-7;0;Iridium
14.34216596;0.0003252;86.4022;14.4371;104.1771;255.9786;6.7961E-6;3.9E-7;0;Iridium
14.34216639;0.0003276;86.4023;14.175;103.4399;256.7162;7.879E-6;4.2E-7;0;Iridium
14.34216707;0.0003295;86.4023;14.0003;103.0707;257.0857;1.0605E-5;4.9E-7;0;Iridium
14.3421677;0.0003321;86.4023;13.7382;102.1008;258.056;1.2874E-5;5.6E-7;0;Iridium
14.342168;0.0003331;86.4024;13.5926;101.6271;258.5299;1.2788E-5;5.6E-7;0;Iridium
14.34216943;0.0003357;86.4024;13.3305;100.8539;259.3034;2.0495E-5;7.7E-7;0;Iridium
14.3421697;0.0003367;86.4024;13.1557;100.3018;259.8558;1.8789E-5;7.2E-7;0;Iridium
14.34216981;0.0003389;86.4024;12.8936;99.4877;260.6702;1.599E-5;6.5E-7;0;Iridium
14.34217033;0.0003399;86.4024;12.748;99.1735;260.9846;1.814E-5;7.1E-7;0;Iridium
14.34217093;0.0003415;86.4024;12.5151;98.4556;261.7027;1.9301E-5;7.4E-7;0;Iridium
14.34217095;0.0003417;86.4024;12.4859;98.3825;261.7758;1.926E-5;7.4E-7;0;Iridium
14.34217156;0.0003427;86.4023;12.3403;98.0601;262.0984;2.1397E-5;8.0E-7;0;Iridium
14.34217155;0.0003443;86.4023;12.0782;97.1364;263.0223;1.7282E-5;6.8E-7;0;Iridium
14.34217155;0.0003443;86.4023;12.0782;97.1364;263.0223;1.7282E-5;6.8E-7;0;Iridium
14.34217163;0.0003444;86.4023;12.0491;97.077;263.0818;1.7438E-5;6.9E-7;0;Iridium
14.34217192;0.0003449;86.4023;11.9326;96.7694;263.3894;1.7296E-5;6.8E-7;0;Iridium
14.34217192;0.0003449;86.4023;11.9326;96.7694;263.3894;1.7296E-5;6.8E-7;0;Iridium
14.3421732;0.0003465;86.4022;11.5248;95.6083;264.5508;1.9405E-5;7.4E-7;0;Iridium
14.34217395;0.0003468;86.4022;11.3792;95.2301;264.929;2.2088E-5;8.2E-7;0;Iridium
14.34217416;0.0003469;86.4022;11.3501;95.1364;265.0228;2.2495E-5;8.3E-7;0;Iridium
14.34217541;0.000348;86.4022;11.1171;94.4783;265.681;2.5514E-5;9.1E-7;0;Iridium
14.34217634;0.0003482;86.4021;10.9424;93.9324;266.227;2.731E-5;9.6E-7;0;Iridium
14.34217729;0.0003493;86.4021;10.7094;93.2212;266.9384;2.6986E-5;9.5E-7;0;Iridium
14.34217801;0.0003494;86.4021;10.5055;92.6048;267.5548;2.6928E-5;9.5E-7;0;Iridium
14.34217801;0.0003494;86.4021;10.5055;92.6048;267.5548;2.6928E-5;9.5E-7;0;Iridium
14.34217958;0.0003503;86.402;10.0978;91.4782;268.6816;2.6288E-5;9.3E-7;0;Iridium
14.34217992;0.0003513;86.402;9.894;90.9096;269.2503;2.3859E-5;8.7E-7;0;Iridium
14.34218061;0.0003512;86.402;9.6901;90.3484;269.8115;2.332E-5;8.5E-7;0;Iridium
14.34218107;0.000352;86.4019;9.4571;89.6419;270.518;2.0574E-5;7.7E-7;0;Iridium
14.34218188;0.0003526;86.4019;9.195;88.9434;271.2166;2.0643E-5;7.8E-7;0;Iridium
14.34218228;0.0003527;86.4019;9.0785;88.5815;271.5785;1.9834E-5;7.5E-7;0;Iridium
14.34218223;0.0003532;86.4019;9.0494;88.5837;271.5763;1.9222E-5;7.4E-7;0;Iridium
14.34218282;0.0003547;86.4018;8.6707;87.6083;272.5519;1.6546E-5;6.6E-7;0;Iridium
14.34218281;0.000355;86.4018;8.6415;87.593;272.5673;1.5892E-5;6.4E-7;0;Iridium
14.34218363;0.0003547;86.4018;8.4376;87.0205;273.1397;1.7339E-5;6.8E-7;0;Iridium
14.34218429;0.000355;86.4017;8.2046;86.2037;273.9565;1.7469E-5;6.9E-7;0;Iridium
14.3421849;0.0003544;86.4017;8.0298;85.4936;274.6664;1.8586E-5;7.2E-7;0;Iridium
14.3421858;0.000355;86.4016;7.7968;84.6968;275.4633;1.9995E-5;7.6E-7;0;Iridium
14.34218665;0.0003543;86.4015;7.3889;83.4124;276.7475;2.0295E-5;7.7E-7;0;Iridium
14.34218782;0.0003529;86.4014;6.9519;82.065;278.0947;2.1965E-5;8.1E-7;0;Iridium
14.34218849;0.000352;86.4014;6.7771;81.5509;278.6086;2.3552E-5;8.6E-7;0;Iridium
14.34218896;0.0003518;86.4013;6.5441;80.7892;279.3702;2.2997E-5;8.4E-7;0;Iridium
14.34218994;0.0003504;86.4012;6.1945;79.6462;280.5128;2.3865E-5;8.7E-7;0;Iridium
14.34218985;0.0003504;86.4012;6.1363;79.4476;280.7114;2.2272E-5;8.2E-7;0;Iridium
14.34219105;0.0003487;86.4011;5.7574;78.326;281.8327;2.2697E-5;8.3E-7;0;Iridium
14.34219101;0.0003486;86.4011;5.7283;78.1572;282.0015;2.1807E-5;8.1E-7;0;Iridium
14.34219267;0.0003468;86.401;5.3204;77.1621;282.9962;2.2676E-5;8.3E-7;0;Iridium
14.34219269;0.0003467;86.401;5.2913;77.0567;283.1015;2.2368E-5;8.2E-7;0;Iridium
14.34219427;0.000345;86.4009;4.9417;76.0632;284.0947;2.3882E-5;8.7E-7;0;Iridium
14.34219427;0.000345;86.4009;4.9417;76.0632;284.0947;2.3882E-5;8.7E-7;0;Iridium
14.34219421;0.0003451;86.4009;4.8835;75.9351;284.2228;2.2167E-5;8.2E-7;0;Iridium
14.34219481;0.0003436;86.4008;4.7086;75.3751;284.7826;2.248E-5;8.3E-7;0;Iridium
14.34219556;0.0003407;86.4007;4.3008;74.0495;286.1076;1.8752E-5;7.2E-7;0;Iridium
14.34219561;0.0003405;86.4007;4.2717;73.9475;286.2096;1.8398E-5;7.1E-7;0;Iridium
14.34219565;0.00034;86.4007;4.0677;73.324;286.8329;1.5257E-5;6.3E-7;0;Iridium
14.34219672;0.0003372;86.4006;3.6598;72.4763;287.6801;1.4721E-5;6.1E-7;0;Iridium
14.34219641;0.0003376;86.4005;3.6308;72.6244;287.532;1.3282E-5;5.7E-7;0;Iridium
14.34219765;0.0003351;86.4005;3.2812;71.2912;288.8648;1.5285E-5;6.3E-7;0;Iridium
14.34217499;0.0003358;86.4006;3.2235;71.0172;289.1388;1.4749E-5;6.1E-7;0;Iridium
14.34217053;0.0003298;86.4004;3.019;69.4877;290.6672;1.5161E-5;6.2E-7;0;Iridium
14.34216292;0.0003324;86.4003;2.7857;69.8012;290.3541;3.6203E-5;1.21E-6;0;Iridium
14.34216451;0.0003296;86.4001;2.4068;68.6843;291.4705;1.5574E-5;6.3E-7;0;Iridium
14.34216386;0.0003277;86.4002;2.2028;67.8314;292.3229;2.0034E-6;2.5E-7;0;Iridium
14.34216399;0.0003252;86.4001;1.9697;67.1846;292.9693;2.4341E-6;2.7E-7;0;Iridium
14.34216451;0.0003238;86.4;1.7948;66.5497;293.6039;3.7693E-6;3.0E-7;0;Iridium
14.3421666;0.0003205;86.3999;1.5617;65.9225;294.2306;2.0859E-5;7.8E-7;0;Iridium
14.34216753;0.0003177;86.3998;1.3577;65.317;294.8356;2.4193E-5;8.8E-7;0;Iridium
14.34216753;0.0003177;86.3998;1.3577;65.317;294.8356;2.4193E-5;8.8E-7;0;Iridium
14.34216779;0.0003158;86.3998;1.1828;64.8277;295.3246;2.298E-5;8.4E-7;0;Iridium
14.34216772;0.0003155;86.3997;1.1536;64.762;295.3902;2.1903E-5;8.1E-7;0;Iridium
14.34216887;0.0003125;86.3997;0.9496;64.2626;295.8892;2.5768E-5;9.2E-7;0;Iridium
14.34216944;0.0003106;86.3996;0.7746;64.0407;296.1109;2.6115E-5;9.3E-7;0;Iridium
14.34216931;0.0003101;86.3995;0.7163;63.9642;296.1872;2.4391E-5;8.8E-7;0;Iridium
14.34217027;0.0003072;86.3995;0.5124;63.3974;296.7536;2.6458E-5;9.4E-7;0;Iridium
14.34217067;0.0003056;86.3994;0.3666;63.0132;297.1376;2.6149E-5;9.3E-7;0;Iridium
14.34217067;0.0003056;86.3994;0.3666;63.0132;297.1376;2.6149E-5;9.3E-7;0;Iridium
14.34217043;0.0003049;86.3994;0.2792;62.8776;297.273;2.362E-5;8.6E-7;0;Iridium
14.34217171;0.0003;86.3992;359.9003;61.9462;298.2037;2.3394E-5;8.5E-7;0;Iridium
14.34217154;0.0002998;86.3993;359.8712;61.9297;298.2202;2.2478E-5;8.3E-7;0;Iridium
14.34217216;0.0002973;86.3992;359.6963;61.5247;298.6248;2.2469E-5;8.3E-7;0;Iridium
14.34217279;0.0002946;86.3991;359.4632;60.9356;299.2135;2.1664E-5;8.0E-7;0;Iridium
14.34217348;0.0002921;86.399;359.2882;60.607;299.5417;2.1593E-5;8.0E-7;0;Iridium
14.34217402;0.0002893;86.3989;359.055;60.1098;300.0385;1.9607E-5;7.5E-7;0;Iridium
14.34217461;0.0002869;86.3988;358.88;59.508;300.6399;1.9582E-5;7.5E-7;0;Iridium
